CCSDS_OMM_VERS = 2.0
CREATION_DATE  = 
ORIGINATOR     = 

OBJECT_NAME    = SL-16 R/B
OBJECT_ID      = 1998-043G
CENTER_NAME    = EARTH
REF_FRAME      = TEME
TIME_SYSTEM    = UTC
MEAN_ELEMENT_THEORY = SGP/SGP4

EPOCH          = 2025-12-30T19:56:09.844800
MEAN_MOTION    = 14.26030498
ECCENTRICITY   = .0009268
INCLINATION    = 98.8149
RA_OF_ASC_NODE = 312.7522
ARG_OF_PERICENTER = 209.0463
MEAN_ANOMALY   = 151.0202

EPHEMERIS_TYPE = 0
CLASSIFICATION_TYPE = U
NORAD_CAT_ID   = 25400
ELEMENT_SET_NO = 999
REV_AT_EPOCH   = 42917
BSTAR          = .83583726E-4
MEAN_MOTION_DOT = .154E-5
MEAN_MOTION_DDOT = 0

CCSDS_OMM_VERS = 2.0
CREATION_DATE  = 
ORIGINATOR     = 

OBJECT_NAME    = SL-16 R/B
OBJECT_ID      = 1998-045B
CENTER_NAME    = EARTH
REF_FRAME      = TEME
TIME_SYSTEM    = UTC
MEAN_ELEMENT_THEORY = SGP/SGP4

EPOCH          = 2025-12-30T22:01:20.306496
MEAN_MOTION    = 14.16181350
ECCENTRICITY   = .00057872
INCLINATION    = 71.0125
RA_OF_ASC_NODE = 326.1983
ARG_OF_PERICENTER = 146.1341
MEAN_ANOMALY   = 214.0153

EPHEMERIS_TYPE = 0
CLASSIFICATION_TYPE = U
NORAD_CAT_ID   = 25407
ELEMENT_SET_NO = 999
REV_AT_EPOCH   = 41736
BSTAR          = .77475379E-4
MEAN_MOTION_DOT = .106E-5
MEAN_MOTION_DDOT = 0

CCSDS_OMM_VERS = 2.0
CREATION_DATE  = 
ORIGINATOR     = 

OBJECT_NAME    = ISS (ZARYA)
OBJECT_ID      = 1998-067A
CENTER_NAME    = EARTH
REF_FRAME      = TEME
TIME_SYSTEM    = UTC
MEAN_ELEMENT_THEORY = SGP/SGP4

EPOCH          = 2025-12-30T17:26:00.482208
MEAN_MOTION    = 15.48950977
ECCENTRICITY   = .00074779
INCLINATION    = 51.6331
RA_OF_ASC_NODE = 53.3984
ARG_OF_PERICENTER = 320.8804
MEAN_ANOMALY   = 39.1643

EPHEMERIS_TYPE = 0
CLASSIFICATION_TYPE = U
NORAD_CAT_ID   = 25544
ELEMENT_SET_NO = 999
REV_AT_EPOCH   = 54564
BSTAR          = .30091324E-3
MEAN_MOTION_DOT = .16146E-3
MEAN_MOTION_DDOT = 0

CCSDS_OMM_VERS = 2.0
CREATION_DATE  = 
ORIGINATOR     = 

OBJECT_NAME    = CZ-4B R/B
OBJECT_ID      = 1999-025C
CENTER_NAME    = EARTH
REF_FRAME      = TEME
TIME_SYSTEM    = UTC
MEAN_ELEMENT_THEORY = SGP/SGP4

EPOCH          = 2025-12-30T17:58:33.936960
MEAN_MOTION    = 14.18248367
ECCENTRICITY   = .00371149
INCLINATION    = 98.6743
RA_OF_ASC_NODE = 45.6239
ARG_OF_PERICENTER = 181.6619
MEAN_ANOMALY   = 289.1076

EPHEMERIS_TYPE = 0
CLASSIFICATION_TYPE = U
NORAD_CAT_ID   = 25732
ELEMENT_SET_NO = 999
REV_AT_EPOCH   = 37839
BSTAR          = .87124949E-4
MEAN_MOTION_DOT = .137E-5
MEAN_MOTION_DDOT = 0

CCSDS_OMM_VERS = 2.0
CREATION_DATE  = 
ORIGINATOR     = 

OBJECT_NAME    = OKEAN-O
OBJECT_ID      = 1999-039A
CENTER_NAME    = EARTH
REF_FRAME      = TEME
TIME_SYSTEM    = UTC
MEAN_ELEMENT_THEORY = SGP/SGP4

EPOCH          = 2025-12-30T18:30:42.797088
MEAN_MOTION    = 14.80195934
ECCENTRICITY   = .00012997
INCLINATION    = 97.9578
RA_OF_ASC_NODE = 60.3150
ARG_OF_PERICENTER = 114.6149
MEAN_ANOMALY   = 245.5199

EPHEMERIS_TYPE = 0
CLASSIFICATION_TYPE = U
NORAD_CAT_ID   = 25860
ELEMENT_SET_NO = 999
REV_AT_EPOCH   = 42419
BSTAR          = .17500273E-3
MEAN_MOTION_DOT = .1278E-4
MEAN_MOTION_DDOT = 0

CCSDS_OMM_VERS = 2.0
CREATION_DATE  = 
ORIGINATOR     = 

OBJECT_NAME    = SL-16 R/B
OBJECT_ID      = 1999-039B
CENTER_NAME    = EARTH
REF_FRAME      = TEME
TIME_SYSTEM    = UTC
MEAN_ELEMENT_THEORY = SGP/SGP4

EPOCH          = 2025-12-30T17:58:44.259168
MEAN_MOTION    = 14.81615776
ECCENTRICITY   = .00159817
INCLINATION    = 98.0101
RA_OF_ASC_NODE = 58.8993
ARG_OF_PERICENTER = 118.8852
MEAN_ANOMALY   = 241.3966

EPHEMERIS_TYPE = 0
CLASSIFICATION_TYPE = U
NORAD_CAT_ID   = 25861
ELEMENT_SET_NO = 999
REV_AT_EPOCH   = 42665
BSTAR          = .14460173E-3
MEAN_MOTION_DOT = .1085E-4
MEAN_MOTION_DDOT = 0

CCSDS_OMM_VERS = 2.0
CREATION_DATE  = 
ORIGINATOR     = 

OBJECT_NAME    = DELTA 2 R/B
OBJECT_ID      = 1999-041E
CENTER_NAME    = EARTH
REF_FRAME      = TEME
TIME_SYSTEM    = UTC
MEAN_ELEMENT_THEORY = SGP/SGP4

EPOCH          = 2025-12-30T20:10:07.053888
MEAN_MOTION    = 14.11462339
ECCENTRICITY   = .05043029
INCLINATION    = 51.7593
RA_OF_ASC_NODE = 216.1877
ARG_OF_PERICENTER = 145.1155
MEAN_ANOMALY   = 218.3944

EPHEMERIS_TYPE = 0
CLASSIFICATION_TYPE = U
NORAD_CAT_ID   = 25876
ELEMENT_SET_NO = 999
REV_AT_EPOCH   = 35330
BSTAR          = .55058168E-3
MEAN_MOTION_DOT = .3189E-4
MEAN_MOTION_DDOT = 0

CCSDS_OMM_VERS = 2.0
CREATION_DATE  = 
ORIGINATOR     = 

OBJECT_NAME    = HELIOS 1B
OBJECT_ID      = 1999-064A
CENTER_NAME    = EARTH
REF_FRAME      = TEME
TIME_SYSTEM    = UTC
MEAN_ELEMENT_THEORY = SGP/SGP4

EPOCH          = 2025-12-30T16:46:24.915936
MEAN_MOTION    = 14.87363770
ECCENTRICITY   = .0000624
INCLINATION    = 98.1752
RA_OF_ASC_NODE = 259.8975
ARG_OF_PERICENTER = 33.7608
MEAN_ANOMALY   = 326.3647

EPHEMERIS_TYPE = 0
CLASSIFICATION_TYPE = U
NORAD_CAT_ID   = 25977
ELEMENT_SET_NO = 999
REV_AT_EPOCH   = 67500
BSTAR          = .3577241E-3
MEAN_MOTION_DOT = .3174E-4
MEAN_MOTION_DDOT = 0

CCSDS_OMM_VERS = 2.0
CREATION_DATE  = 
ORIGINATOR     = 

OBJECT_NAME    = TERRA
OBJECT_ID      = 1999-068A
CENTER_NAME    = EARTH
REF_FRAME      = TEME
TIME_SYSTEM    = UTC
MEAN_ELEMENT_THEORY = SGP/SGP4

EPOCH          = 2025-12-30T21:27:08.081856
MEAN_MOTION    = 14.60925205
ECCENTRICITY   = .00032233
INCLINATION    = 97.9724
RA_OF_ASC_NODE = 55.9098
ARG_OF_PERICENTER = 57.7141
MEAN_ANOMALY   = 53.4530

EPHEMERIS_TYPE = 0
CLASSIFICATION_TYPE = U
NORAD_CAT_ID   = 25994
ELEMENT_SET_NO = 999
REV_AT_EPOCH   = 38503
BSTAR          = .19220246E-3
MEAN_MOTION_DOT = .897E-5
MEAN_MOTION_DDOT = 0

CCSDS_OMM_VERS = 2.0
CREATION_DATE  = 
ORIGINATOR     = 

OBJECT_NAME    = SL-16 R/B
OBJECT_ID      = 2000-006B
CENTER_NAME    = EARTH
REF_FRAME      = TEME
TIME_SYSTEM    = UTC
MEAN_ELEMENT_THEORY = SGP/SGP4

EPOCH          = 2025-12-30T20:16:03.155808
MEAN_MOTION    = 14.15812520
ECCENTRICITY   = .0018692
INCLINATION    = 71.0012
RA_OF_ASC_NODE = 242.5913
ARG_OF_PERICENTER = 284.2215
MEAN_ANOMALY   = 75.6832

EPHEMERIS_TYPE = 0
CLASSIFICATION_TYPE = U
NORAD_CAT_ID   = 26070
ELEMENT_SET_NO = 999
REV_AT_EPOCH   = 33881
BSTAR          = .20051111E-3
MEAN_MOTION_DOT = .347E-5
MEAN_MOTION_DDOT = 0

CCSDS_OMM_VERS = 2.0
CREATION_DATE  = 
ORIGINATOR     = 

OBJECT_NAME    = TITAN 4B R/B
OBJECT_ID      = 2000-047B
CENTER_NAME    = EARTH
REF_FRAME      = TEME
TIME_SYSTEM    = UTC
MEAN_ELEMENT_THEORY = SGP/SGP4

EPOCH          = 2025-12-30T20:09:41.568480
MEAN_MOTION    = 15.08925391
ECCENTRICITY   = .00377178
INCLINATION    = 67.9890
RA_OF_ASC_NODE = 234.0162
ARG_OF_PERICENTER = 122.4457
MEAN_ANOMALY   = 238.0349

EPHEMERIS_TYPE = 0
CLASSIFICATION_TYPE = U
NORAD_CAT_ID   = 26474
ELEMENT_SET_NO = 999
REV_AT_EPOCH   = 38252
BSTAR          = .38352878E-3
MEAN_MOTION_DOT = .6036E-4
MEAN_MOTION_DDOT = 0

CCSDS_OMM_VERS = 2.0
CREATION_DATE  = 
ORIGINATOR     = 

OBJECT_NAME    = ENVISAT
OBJECT_ID      = 2002-009A
CENTER_NAME    = EARTH
REF_FRAME      = TEME
TIME_SYSTEM    = UTC
MEAN_ELEMENT_THEORY = SGP/SGP4

EPOCH          = 2025-12-30T09:06:36.429120
MEAN_MOTION    = 14.39006569
ECCENTRICITY   = .00011154
INCLINATION    = 98.3625
RA_OF_ASC_NODE = 314.6753
ARG_OF_PERICENTER = 88.2338
MEAN_ANOMALY   = 83.3691

EPHEMERIS_TYPE = 0
CLASSIFICATION_TYPE = U
NORAD_CAT_ID   = 27386
ELEMENT_SET_NO = 999
REV_AT_EPOCH   = 24920
BSTAR          = .97009711E-4
MEAN_MOTION_DOT = .257E-5
MEAN_MOTION_DDOT = 0

